BEIJING 1               
1 28890U 05043A   26116.87382475  .00000514  00000+0  10842-3 0  9996
2 28890  98.2822 249.8234 0015922  82.7544 277.5467 14.63501328 93149
HUANJING 1A (HJ-1A)     
1 33320U 08041A   26116.85186485  .00001442  00000+0  17960-3 0  9991
2 33320  97.6670 104.6862 0017889 310.9150  49.0515 14.83866954950795
HUANJING 1B (HJ-1B)     
1 33321U 08041B   26116.86575704  .00001337  00000+0  16817-3 0  9992
2 33321  97.6513 108.0241 0036337 354.5544   5.5270 14.83222481950809
YAOGAN-4                
1 33446U 08061A   26116.82598067  .00000939  00000+0  12179-3 0  9999
2 33446  97.9288  50.7256 0013020 235.0658 124.9333 14.83101326938054
DEIMOS-1                
1 35681U 09041A   26116.77253354  .00000565  00000+0  90622-4 0  9997
2 35681  97.7344 276.2464 0001982  45.6303 314.5068 14.75181674899301
UK-DMC 2                
1 35683U 09041C   26116.83914510  .00000900  00000+0  13804-3 0  9993
2 35683  97.8748 253.0861 0001733  88.0602 272.0806 14.75946133898994
DMC3-FM1                
1 40715U 15032A   26116.88506465 -.00000055  00000+0 -38901-6 0  9994
2 40715  97.6538 344.0541 0004443 209.9480 150.1482 14.85678202582295
DMC3-FM2                
1 40716U 15032B   26116.83993830  .00000220  00000+0  31323-4 0  9997
2 40716  97.6591 345.5487 0004948 218.1884 141.8982 14.85681320582286
DMC3-FM3                
1 40717U 15032C   26116.79567617  .00000725  00000+0  89548-4 0  9995
2 40717  97.6643 347.2260 0004165 215.1084 144.9858 14.85682678582286
